DUPLEX                  
1 66906U 98067XS  26091.11529619  .00033711  00000+0  45047-3 0  9996
2 66906  51.6289 317.1598 0003067 216.2059 143.8726 15.57724655 18620
ISS OBJECT XT           
1 66907U 98067XT  26091.89197516  .00271653  00000+0  14895-2 0  9994
2 66907  51.6226 306.5524 0006750 231.8821 128.1571 15.78433810 18835
ISS OBJECT XU           
1 66908U 98067XU  26091.88747917  .00284033  00000+0  15333-2 0  9994
2 66908  51.6227 306.5178 0006971 231.5533 128.4842 15.78743702 18832
SILVERSAT               
1 66909U 98067XV  26091.00682861  .00386729  00000+0  15922-2 0  9994
2 66909  51.6192 309.6226 0008026 232.8926 127.1344 15.84315758 18718
ISS OBJECT XW           
1 66910U 98067XW  26091.01577969  .00210998  00000+0  12822-2 0  9999
2 66910  51.6214 311.1958 0006908 221.9549 138.0922 15.76293505 18698
ISS OBJECT XX           
1 66911U 98067XX  26091.87506797  .00647261  18197-3  17622-2 0  9995
2 66911  51.6164 303.3744 0010278 244.1070 115.8878 15.93473578 18861
ISS OBJECT XY           
1 66912U 98067XY  26091.87338559  .00121475  00000+0  10364-2 0  9995
2 66912  51.6257 309.4565 0004752 225.3322 134.7288 15.68620827 18783
KNACKSAT-2              
1 67683U 98067XZ  26090.99583651  .00046098  00000+0  70857-3 0  9999
2 67683  51.6314 320.8633 0010240 267.3943  92.5875 15.53721795  8254
CORAL                   
1 67684U 98067YA  26091.88115614  .00095741  00000+0  12213-2 0  9999
2 67684  51.6293 315.5246 0013287 260.7117  99.2373 15.58404282  8404
GXIBA-1                 
1 67685U 98067YB  26091.88479556  .00048495  00000+0  72618-3 0  9998
2 67685  51.6317 316.2995 0012296 267.6906  92.2676 15.54391194  8392
UITMSAT-2               
1 67686U 98067YC  26091.86757556  .00059268  00000+0  85240-3 0  9991
2 67686  51.6311 316.1867 0009333 241.1097 118.8958 15.55443039  8395
HMU-SAT2                
1 67687U 98067YD  26091.89039571  .00048342  00000+0  73195-3 0  9992
2 67687  51.6317 316.3398 0008895 243.7154 116.2923 15.54129932  8315
LEOPARD                 
1 67688U 98067YE  26091.87542653  .00054338  00000+0  79652-3 0  9997
2 67688  51.6312 316.2399 0009084 241.2803 118.7275 15.54964174  8318
CREW DRAGON 12          
1 67796U 26031A   26091.87535881  .00008649  00000+0  16662-3 0  9990
2 67796  51.6332 317.7346 0006234 261.1210  98.9072 15.48704904559899
PROGRESS-MS 33          
1 68319U 26058A   26091.87535881  .00008649  00000+0  16662-3 0  9991
2 68319  51.6332 317.7346 0006234 261.1210  98.9072 15.48704904  1400
